[{"OBJECT_NAME":"OBJECT F","OBJECT_ID":"2023-072F","EPOCH":"2026-03-09T23:31:37.259904","MEAN_MOTION":15.29470958,"ECCENTRICITY":0.00062878,"INCLINATION":97.5173,"RA_OF_ASC_NODE":265.798,"ARG_OF_PERICENTER":19.0017,"MEAN_ANOMALY":341.1456,"EPHEMERIS_TYPE":0,"CLASSIFICATION_TYPE":"U","NORAD_CAT_ID":56748,"ELEMENT_SET_NO":999,"REV_AT_EPOCH":15460,"BSTAR":0.00043416252,"MEAN_MOTION_DOT":0.00012341,"MEAN_MOTION_DDOT":0},{"OBJECT_NAME":"STARLINK-33770","OBJECT_ID":"2025-095S","EPOCH":"2026-03-09T07:34:44.732064","MEAN_MOTION":15.27590928,"ECCENTRICITY":0.00014853,"INCLINATION":42.9963,"RA_OF_ASC_NODE":178.0606,"ARG_OF_PERICENTER":252.4528,"MEAN_ANOMALY":107.6161,"EPHEMERIS_TYPE":0,"CLASSIFICATION_TYPE":"U","NORAD_CAT_ID":63906,"ELEMENT_SET_NO":999,"REV_AT_EPOCH":4772,"BSTAR":0.0011855791,"MEAN_MOTION_DOT":0.00032518,"MEAN_MOTION_DDOT":0}]
